[{"OBJECT_NAME":"STARLINK-30900","OBJECT_ID":"2023-180X","EPOCH":"2026-03-09T00:15:23.539104","MEAN_MOTION":15.27578512,"ECCENTRICITY":0.0001163,"INCLINATION":43.0002,"RA_OF_ASC_NODE":56.1942,"ARG_OF_PERICENTER":267.6681,"MEAN_ANOMALY":92.4038,"EPHEMERIS_TYPE":0,"CLASSIFICATION_TYPE":"U","NORAD_CAT_ID":58423,"ELEMENT_SET_NO":999,"REV_AT_EPOCH":12741,"BSTAR":-0.00010881194,"MEAN_MOTION_DOT":-3.255e-5,"MEAN_MOTION_DDOT":0},{"OBJECT_NAME":"OBJECT G","OBJECT_ID":"2025-155G","EPOCH":"2026-03-09T22:09:56.639808","MEAN_MOTION":15.27590702,"ECCENTRICITY":0.00081871,"INCLINATION":97.4488,"RA_OF_ASC_NODE":37.3259,"ARG_OF_PERICENTER":154.1528,"MEAN_ANOMALY":206.0122,"EPHEMERIS_TYPE":0,"CLASSIFICATION_TYPE":"U","NORAD_CAT_ID":64882,"ELEMENT_SET_NO":999,"REV_AT_EPOCH":6559,"BSTAR":0.0004792617,"MEAN_MOTION_DOT":0.00012876,"MEAN_MOTION_DDOT":0}]
